{
  "type": "FeatureCollection",
  "features": [
    {
      "type": "Feature",
      "properties": {
        "norad_id": 65731,
        "name": "1998-067XK",
        "group": "stations",
        "lat": 45.82181574827383,
        "lon": -148.02439493569156,
        "alt_km": 362.6730286637139,
        "timestamp": "2025-12-22T16:55:16.200820+00:00",
        "meta_object_name": "1998-067XK",
        "meta_object_id": "1998-067XK",
        "meta_epoch": "2025-12-21T23:36:26.096832",
        "meta_mean_motion": 15.67429513,
        "meta_eccentricity": 0.00048355,
        "meta_inclination": 51.6293,
        "meta_ra_of_asc_node": 90.2734,
        "meta_arg_of_pericenter": 305.1289,
        "meta_mean_anomaly": 54.9254,
        "meta_ephemeris_type": 0,
        "meta_classification_type": "U",
        "meta_norad_cat_id": 65731,
        "meta_element_set_no": 999,
        "meta_rev_at_epoch": 1459,
        "meta_bstar": 0.000976025,
        "meta_mean_motion_dot": 0.00108748,
        "meta_mean_motion_ddot": 0,
        "tle_line1": "1 65731U 98067XK  25355.98363538  .00108748  00000+0  97602-3 0  9991",
        "tle_line2": "2 65731  51.6293  90.2734 0004835 305.1289  54.9254 15.67429513 14594"
      },
      "geometry": {
        "type": "Point",
        "coordinates": [
          -148.02439493569156,
          45.82181574827383
        ]
      }
    },
    {
      "type": "Feature",
      "properties": {
        "norad_id": 65732,
        "name": "RSP-03",
        "group": "stations",
        "lat": -16.23001158710493,
        "lon": -81.00779391609015,
        "alt_km": 359.7521113240964,
        "timestamp": "2025-12-22T16:55:16.200830+00:00",
        "meta_object_name": "RSP-03",
        "meta_object_id": "1998-067XL",
        "meta_epoch": "2025-12-22T06:54:35.592480",
        "meta_mean_motion": 15.70976821,
        "meta_eccentricity": 0.00056984,
        "meta_inclination": 51.6263,
        "meta_ra_of_asc_node": 87.7899,
        "meta_arg_of_pericenter": 311.2315,
        "meta_mean_anomaly": 48.8191,
        "meta_ephemeris_type": 0,
        "meta_classification_type": "U",
        "meta_norad_cat_id": 65732,
        "meta_element_set_no": 999,
        "meta_rev_at_epoch": 1466,
        "meta_bstar": 0.0011568337,
        "meta_mean_motion_dot": 0.00150193,
        "meta_mean_motion_ddot": 0,
        "tle_line1": "1 65732U 98067XL  25356.28791195  .00150193  00000+0  11568-2 0  9997",
        "tle_line2": "2 65732  51.6263  87.7899 0005698 311.2315  48.8191 15.70976821 14664"
      },
      "geometry": {
        "type": "Point",
        "coordinates": [
          -81.00779391609015,
          -16.23001158710493
        ]
      }
    },
    {
      "type": "Feature",
      "properties": {
        "norad_id": 65733,
        "name": "GHS-01",
        "group": "stations",
        "lat": 10.844956398990822,
        "lon": 92.51822053828178,
        "alt_km": 327.42742405624904,
        "timestamp": "2025-12-22T16:55:16.200843+00:00",
        "meta_object_name": "GHS-01",
        "meta_object_id": "1998-067XM",
        "meta_epoch": "2025-12-21T11:59:59.059968",
        "meta_mean_motion": 15.78528465,
        "meta_eccentricity": 0.00088162,
        "meta_inclination": 51.6282,
        "meta_ra_of_asc_node": 90.0237,
        "meta_arg_of_pericenter": 335.2591,
        "meta_mean_anomaly": 24.7986,
        "meta_ephemeris_type": 0,
        "meta_classification_type": "U",
        "meta_norad_cat_id": 65733,
        "meta_element_set_no": 999,
        "meta_rev_at_epoch": 1456,
        "meta_bstar": 0.0013106356,
        "meta_mean_motion_dot": 0.00239293,
        "meta_mean_motion_ddot": 0,
        "tle_line1": "1 65733U 98067XM  25355.49998912  .00239293  00000+0  13106-2 0  9995",
        "tle_line2": "2 65733  51.6282  90.0237 0008816 335.2591  24.7986 15.78528465 14565"
      },
      "geometry": {
        "type": "Point",
        "coordinates": [
          92.51822053828178,
          10.844956398990822
        ]
      }
    },
    {
      "type": "Feature",
      "properties": {
        "norad_id": 65941,
        "name": "YOTSUBA-KULOVER",
        "group": "stations",
        "lat": -0.9694247348543342,
        "lon": 89.0742033251508,
        "alt_km": 384.98630100652554,
        "timestamp": "2025-12-22T16:55:16.200854+00:00",
        "meta_object_name": "YOTSUBA-KULOVER",
        "meta_object_id": "1998-067XN",
        "meta_epoch": "2025-12-22T06:10:09.411168",
        "meta_mean_motion": 15.60674644,
        "meta_eccentricity": 0.00021538,
        "meta_inclination": 51.6293,
        "meta_ra_of_asc_node": 92.0993,
        "meta_arg_of_pericenter": 341.2736,
        "meta_mean_anomaly": 18.8178,
        "meta_ephemeris_type": 0,
        "meta_classification_type": "U",
        "meta_norad_cat_id": 65941,
        "meta_element_set_no": 999,
        "meta_rev_at_epoch": 1134,
        "meta_bstar": 0.00088673356,
        "meta_mean_motion_dot": 0.00075191,
        "meta_mean_motion_ddot": 0,
        "tle_line1": "1 65941U 98067XN  25356.25705337  .00075191  00000+0  88673-3 0  9995",
        "tle_line2": "2 65941  51.6293  92.0993 0002153 341.2736  18.8178 15.60674644 11347"
      },
      "geometry": {
        "type": "Point",
        "coordinates": [
          89.0742033251508,
          -0.9694247348543342
        ]
      }
    },
    {
      "type": "Feature",
      "properties": {
        "norad_id": 65942,
        "name": "BOTAN",
        "group": "stations",
        "lat": 49.58865756918457,
        "lon": -159.6632444716103,
        "alt_km": 368.3862364242177,
        "timestamp": "2025-12-22T16:55:16.200865+00:00",
        "meta_object_name": "BOTAN",
        "meta_object_id": "1998-067XP",
        "meta_epoch": "2025-12-21T23:37:13.039680",
        "meta_mean_motion": 15.64723057,
        "meta_eccentricity": 0.00030592,
        "meta_inclination": 51.6285,
        "meta_ra_of_asc_node": 92.5255,
        "meta_arg_of_pericenter": 316.6452,
        "meta_mean_anomaly": 43.4302,
        "meta_ephemeris_type": 0,
        "meta_classification_type": "U",
        "meta_norad_cat_id": 65942,
        "meta_element_set_no": 999,
        "meta_rev_at_epoch": 1131,
        "meta_bstar": 0.0011948003,
        "meta_mean_motion_dot": 0.00119607,
        "meta_mean_motion_ddot": 0,
        "tle_line1": "1 65942U 98067XP  25355.98417870  .00119607  00000+0  11948-2 0  9998",
        "tle_line2": "2 65942  51.6285  92.5255 0003059 316.6452  43.4302 15.64723057 11319"
      },
      "geometry": {
        "type": "Point",
        "coordinates": [
          -159.6632444716103,
          49.58865756918457
        ]
      }
    },
    {
      "type": "Feature",
      "properties": {
        "norad_id": 65943,
        "name": "E-KAGAKU-1",
        "group": "stations",
        "lat": -1.4971644354213345,
        "lon": 88.66043941506449,
        "alt_km": 386.30315357749805,
        "timestamp": "2025-12-22T16:55:16.200875+00:00",
        "meta_object_name": "E-KAGAKU-1",
        "meta_object_id": "1998-067XQ",
        "meta_epoch": "2025-12-21T11:43:47.711424",
        "meta_mean_motion": 15.60558335,
        "meta_eccentricity": 0.00011984,
        "meta_inclination": 51.6316,
        "meta_ra_of_asc_node": 95.9734,
        "meta_arg_of_pericenter": 280.9822,
        "meta_mean_anomaly": 79.1036,
        "meta_ephemeris_type": 0,
        "meta_classification_type": "U",
        "meta_norad_cat_id": 65943,
        "meta_element_set_no": 999,
        "meta_rev_at_epoch": 1122,
        "meta_bstar": 0.00073910068,
        "meta_mean_motion_dot": 0.00062201,
        "meta_mean_motion_ddot": 0,
        "tle_line1": "1 65943U 98067XQ  25355.48874666  .00062201  00000+0  73910-3 0  9999",
        "tle_line2": "2 65943  51.6316  95.9734 0001198 280.9822  79.1036 15.60558335 11221"
      },
      "geometry": {
        "type": "Point",
        "coordinates": [
          88.66043941506449,
          -1.4971644354213345
        ]
      }
    },
    {
      "type": "Feature",
      "properties": {
        "norad_id": 66052,
        "name": "HRC MONOBLOCK CAMERA",
        "group": "stations",
        "lat": 30.076559737878863,
        "lon": -115.51892282149336,
        "alt_km": 398.95460581566203,
        "timestamp": "2025-12-22T16:55:16.200885+00:00",
        "meta_object_name": "HRC MONOBLOCK CAMERA",
        "meta_object_id": "1998-067XR",
        "meta_epoch": "2025-12-21T17:10:53.034240",
        "meta_mean_motion": 15.54728821,
        "meta_eccentricity": 0.00023026,
        "meta_inclination": 51.6309,
        "meta_ra_of_asc_node": 96.7319,
        "meta_arg_of_pericenter": 227.1692,
        "meta_mean_anomaly": 132.9105,
        "meta_ephemeris_type": 0,
        "meta_classification_type": "U",
        "meta_norad_cat_id": 66052,
        "meta_element_set_no": 999,
        "meta_rev_at_epoch": 1023,
        "meta_bstar": 0.00048538169,
        "meta_mean_motion_dot": 0.00032497,
        "meta_mean_motion_ddot": 0,
        "tle_line1": "1 66052U 98067XR  25355.71589160  .00032497  00000+0  48538-3 0  9991",
        "tle_line2": "2 66052  51.6309  96.7319 0002302 227.1692 132.9105 15.54728821 10236"
      },
      "geometry": {
        "type": "Point",
        "coordinates": [
          -115.51892282149336,
          30.076559737878863
        ]
      }
    }
  ]
}